BEIDOU-2 IGSO-1 (C06)   
1 36828U 10036A   24204.61783656 -.00000116  00000+0  00000+0 0  9998
2 36828  54.2583 169.2444 0041856 206.8937 255.1539  1.00271734 51242
BEIDOU-2 G4 (C04)       
1 37210U 10057A   24204.53349934 -.00000111  00000+0  00000+0 0  9990
2 37210   1.9271  69.2453 0004432 149.4117  74.1205  1.00273184 50329
BEIDOU-2 IGSO-2 (C07)   
1 37256U 10068A   24204.57847183 -.00000172  00000+0  00000+0 0  9992
2 37256  48.8116 280.3908 0039946 215.1899 119.8474  1.00292157 49823
BEIDOU-2 IGSO-3 (C08)   
1 37384U 11013A   24204.34710612 -.00000148  00000+0  00000+0 0  9999
2 37384  61.4011  46.7710 0027853 173.1403 309.5351  1.00249888 48692
BEIDOU-2 IGSO-4 (C09)   
1 37763U 11038A   24204.38036684  .00000006  00000+0  00000+0 0  9993
2 37763  54.5639 171.8621 0126399 228.9983 128.8694  1.00252294 47674
BEIDOU-2 IGSO-5 (C10)   
1 37948U 11073A   24204.57524505 -.00000128  00000+0  00000+0 0  9998
2 37948  48.9450 280.0815 0102339 220.7002 102.4638  1.00285652 46168
BEIDOU-2 G5 (C05)       
1 38091U 12008A   24204.15872953  .00000060  00000+0  00000+0 0  9998
2 38091   2.1581  71.1200 0003484 255.1664  89.9123  1.00269423 45502
BEIDOU-2 M3 (C11)       
1 38250U 12018A   24203.83489603 -.00000071  00000+0  00000+0 0  9999
2 38250  56.3147 328.1905 0022034 260.5837  99.1754  1.86231148 82993
BEIDOU-2 M4 (C12)       
1 38251U 12018B   24203.76495543 -.00000071  00000+0  00000+0 0  9992
2 38251  56.2213 327.4618 0012905 260.4003  99.4626  1.86231855 82996
BEIDOU-2 M6 (C14)       
1 38775U 12050B   24204.01153198 -.00000010  00000+0  00000+0 0  9998
2 38775  55.9389  85.9988 0012858 344.7402  15.2953  1.86231101 80361
BEIDOU-2 G6 (C02)       
1 38953U 12059A   24204.46666641 -.00000175  00000+0  00000+0 0  9998
2 38953   2.6466  80.2672 0008753 320.0423 152.3446  1.00274312 42940
BEIDOU-3S IGSO-1S (C31) 
1 40549U 15019A   24204.03239605 -.00000161  00000+0  00000+0 0  9995
2 40549  50.5078 303.7837 0036017 194.4657 266.5630  1.00297579 34109
BEIDOU-3S M2S (C58)     
1 40748U 15037A   24204.50181299 -.00000070  00000+0  00000+0 0  9992
2 40748  55.4516 325.8359 0009941 244.8251 115.0848  1.86233116 61189
BEIDOU-3S M1S (C57)     
1 40749U 15037B   24203.16219434 -.00000071  00000+0  00000+0 0  9998
2 40749  55.4555 325.8677 0002483 344.0529  15.9483  1.86227478 61166
BEIDOU-3S IGSO-2S (C56) 
1 40938U 15053A   24204.00036021 -.00000076  00000+0  00000+0 0  9994
2 40938  50.3018 267.0002 0053508 191.6958 295.1490  1.00254678 32389
BEIDOU-2 IGSO-6 (C13)   
1 41434U 16021A   24204.35554160 -.00000131  00000+0  00000+0 0  9991
2 41434  59.2277  44.9907 0048221 221.2056 257.1246  1.00264188 30514
BEIDOU-2 G7 (C03)       
1 41586U 16037A   24204.59216860 -.00000353  00000+0  00000+0 0  9990
2 41586   1.9894  70.0341 0008437   7.0458 187.4639  1.00269503 29823
BEIDOU-3 M1 (C19)       
1 43001U 17069A   24204.31447167 -.00000009  00000+0  00000+0 0  9994
2 43001  56.0890  86.0901 0009253 310.9799  49.0152  1.86231361 45662
BEIDOU-3 M2 (C20)       
1 43002U 17069B   24204.25180920 -.00000009  00000+0  00000+0 0  9999
2 43002  56.0885  86.1278 0007768 339.5217  20.5221  1.86230949 45657
BEIDOU-3 M7 (C27)       
1 43107U 18003A   24204.53745584 -.00000072  00000+0  00000+0 0  9998
2 43107  54.9097 326.4100 0004067  84.3867 275.6721  1.86232425 44416
BEIDOU-3 M8 (C28)       
1 43108U 18003B   24204.47818278 -.00000072  00000+0  00000+0 0  9993
2 43108  54.9027 326.3975 0003314 246.8651 113.1124  1.86230879 44424
BEIDOU-3 M4 (C22)       
1 43207U 18018A   24201.16082323 -.00000027  00000+0  00000+0 0  9996
2 43207  56.0453  86.2834 0006215   9.2144 350.8565  1.86231396 43745
BEIDOU-3 M3 (C21)       
1 43208U 18018B   24203.37526349 -.00000012  00000+0  00000+0 0  9997
2 43208  56.0465  86.2137 0007383 326.7184  33.3067  1.86231182 43780
BEIDOU-3 M9 (C29)       
1 43245U 18029A   24204.67000040 -.00000070  00000+0  00000+0 0  9993
2 43245  54.7919 324.1104 0001072 195.9324 164.0799  1.86232446 42966
BEIDOU-3 M10 (C30)      
1 43246U 18029B   24204.06267554 -.00000069  00000+0  00000+0 0  9990
2 43246  54.7895 324.1588 0002879  16.6826 343.3407  1.86232901 42940
BEIDOU-2 IGSO-7 (C16)   
1 43539U 18057A   24204.27480556 -.00000116  00000+0  00000+0 0  9991
2 43539  55.1525 169.0833 0079209 234.4584 104.8441  1.00300713 22164
BEIDOU-3 M5 (C23)       
1 43581U 18062A   24204.28614450  .00000083  00000+0  00000+0 0  9999
2 43581  54.1314 205.9382 0005602 278.0253  81.9257  1.86228595 40697
BEIDOU-3 M6 (C24)       
1 43582U 18062B   24204.15184737  .00000083  00000+0  00000+0 0  9996
2 43582  54.1311 205.9321 0004510 354.7092   5.3016  1.86229534 40695
BEIDOU-3 M12 (C26)      
1 43602U 18067A   24204.08482449  .00000083  00000+0  00000+0 0  9997
2 43602  54.2217 204.6190 0006785  17.0976 342.9383  1.86231538 40177
BEIDOU-3 M11 (C25)      
1 43603U 18067B   24203.68184323  .00000086  00000+0  00000+0 0  9996
2 43603  54.2189 204.5977 0003861 358.6616   1.3533  1.86231458 40191
BEIDOU-3 M13 (C32)      
1 43622U 18072A   24204.18025348 -.00000009  00000+0  00000+0 0  9996
2 43622  56.0190  85.7123 0005848 313.2607  46.7655  1.86231463 39710
BEIDOU-3 M14 (C33)      
1 43623U 18072B   24204.04570358 -.00000010  00000+0  00000+0 0  9990
2 43623  56.0209  85.7099 0004614 349.5044  10.5606  1.86231612 39701
BEIDOU-3 M16 (C35)      
1 43647U 18078A   24204.20814070 -.00000070  00000+0  00000+0 0  9998
2 43647  54.6884 324.2216 0006343  22.5572 337.4848  1.86232127 39214
BEIDOU-3 M15 (C34)      
1 43648U 18078B   24203.80034841 -.00000070  00000+0  00000+0 0  9994
2 43648  54.6846 324.2384 0003323  39.9379 320.0996  1.86232222 39220
BEIDOU-3 G1 (C59)       
1 43683U 18085A   24204.56035410 -.00000277  00000+0  00000+0 0  9997
2 43683   2.2761 108.2820 0004024 357.7412 176.5516  1.00273067 21082
BEIDOU-3 M17 (C36)      
1 43706U 18093A   24203.95105984  .00000085  00000+0  00000+0 0  9994
2 43706  54.2145 205.8906 0010410 281.0986  78.8012  1.86228248 38595
BEIDOU-3 M18 (C37)      
1 43707U 18093B   24203.81612582  .00000086  00000+0  00000+0 0  9998
2 43707  54.2152 205.8869 0008371 305.6704  54.2695  1.86229754 38583
BEIDOU-3 IGSO-1 (C38)   
1 44204U 19023A   24204.52892559 -.00000196  00000+0  00000+0 0  9991
2 44204  57.6940  44.8522 0022807 204.6420   0.0730  1.00290493   243
BEIDOU-2 G8 (C01)       
1 44231U 19027A   24204.56252045 -.00000247  00000+0  00000+0 0  9996
2 44231   1.5605  74.0236 0001630 173.1154  40.6937  1.00268872 19112
BEIDOU-3 IGSO-2 (C39)   
1 44337U 19035A   24204.35880201 -.00000130  00000+0  00000+0 0  9991
2 44337  55.1845 164.9610 0035339 204.8143 178.2905  1.00286044 18706
BEIDOU-3 M24 (C46)      
1 44542U 19061A   24204.42265186  .00000083  00000+0  00000+0 0  9991
2 44542  54.4419 206.1678 0008022 341.8376  18.1480  1.86229205 32857
BEIDOU-3 M23 (C45)      
1 44543U 19061B   24204.71587171  .00000081  00000+0  00000+0 0  9993
2 44543  54.4404 206.1267 0005608 321.0613 147.9963  1.86231611 32858
BEIDOU-3 IGSO-3 (C40)   
1 44709U 19073A   24203.64062397 -.00000169  00000+0  00000+0 0  9997
2 44709  55.9896 288.3639 0040935 188.4189 171.6141  1.00292338 17486
BEIDOU-3 M22 (C44)      
1 44793U 19078A   24201.58359575 -.00000075  00000+0  00000+0 0  9999
2 44793  54.5384 324.2405 0005280  32.3258 327.7140  1.86232190 31657
BEIDOU-3 M21 (C43)      
1 44794U 19078B   24204.39805466 -.00000070  00000+0  00000+0 0  9992
2 44794  54.5094 324.1180 0003131  30.4924 329.5408  1.86232593 31718
BEIDOU-3 M19 (C41)      
1 44864U 19090A   24204.28310878 -.00000009  00000+0  00000+0 0  9992
2 44864  55.9533  85.8784 0016664 284.4991 191.1625  1.86231639 31297
BEIDOU-3 M20 (C42)      
1 44865U 19090B   24204.26163345 -.00000009  00000+0  00000+0 0  9996
2 44865  55.9549  85.9125 0014620 299.0432 251.9419  1.86231567 31271
BEIDOU-3 G2 (C60)       
1 45344U 20017A   24204.53375036 -.00000139  00000+0  00000+0 0  9996
2 45344   2.3581  30.9628 0002322 135.8210  46.1560  1.00269865 16295
BEIDOU-3 G3 (C61)       
1 45807U 20040A   24204.59219708 -.00000353  00000+0  00000+0 0  9993
2 45807   0.8366  46.4769 0004399   7.3938 210.6813  1.00275036 15102
BEIDOU-3 G4             
1 56564U 23066A   24204.72271521 -.00000109  00000+0  00000+0 0  9991
2 56564   2.0362 288.2159 0006282 209.3291 223.5759  1.00272028  4447
BEIDOU-3 M25            
1 58654U 23207A   24203.94397654 -.00000012  00000+0  00000+0 0  9992
2 58654  55.1367  85.8812 0001791 319.8229  40.2368  1.86232282  3898
BEIDOU-3 M26            
1 58655U 23207B   24204.27995597 -.00000011  00000+0  00000+0 0  9999
2 58655  55.1389  85.8550 0002100 275.9732  84.0769  1.86231898  3880
